{
    "features": [
        {
            "geometry": {
                "coordinates": [
                    80.21416667,
                    12.99944444
                ],
                "type": "Point"
            },
            "properties": {
                "addr:city": "Chennai",
                "addr:country": "IN",
                "addr:housenumber": "",
                "addr:street": "Five furlong road, Maduvankarai, Guindy",
                "address:postcode": "600032",
                "amenity": "library",
                "marker-color": "#00ff00",
                "marker-symbol": "library",
                "name": "District Branch Library, Maduvankarai",
                "opening_hours": "Mo-Th 08:00-11:30,14:00-19:00; week 02 Sa off; Su off",
                "operator": "Directorate of Public Libraries"
            },
            "type": "Feature"
        },
        {
            "geometry": {
                "coordinates": [
                    80.26519,
                    13.04005
                ],
                "type": "Point"
            },
            "properties": {
                "addr:city": "Chennai",
                "addr:country": "IN",
                "addr:housenumber": "101/44 A",
                "addr:street": "Veeraperumal Koil Street, Mylapore",
                "address:postcode": "600004",
                "amenity": "library",
                "marker-color": "#00ff00",
                "marker-symbol": "library",
                "name": "District Branch Library, Mylapore",
                "opening_hours": "Mo-Th 08:00-11:30,16:00-19:00; week 02 Sa off; Fr off",
                "operator": "Directorate of Public Libraries"
            },
            "type": "Feature"
        },
        {
            "geometry": {
                "coordinates": [
                    80.26689654,
                    13.02920579
                ],
                "type": "Point"
            },
            "properties": {
                "addr:city": "Chennai",
                "addr:country": "IN",
                "addr:housenumber": "37",
                "addr:street": "Mandaiveli Mylapore Road",
                "address:postcode": "600028",
                "amenity": "library",
                "marker-color": "#00ff00",
                "marker-symbol": "library",
                "name": "Chennai District Branch Library, Mandaiveli",
                "opening_hours": "Mo-Th 08:00-11:30,16:00-19:00; week 02 Sa off; Fr off",
                "operator": "Directorate of Public Libraries"
            },
            "type": "Feature"
        },
        {
            "geometry": {
                "coordinates": [
                    80.25695,
                    12.98746
                ],
                "type": "Point"
            },
            "properties": {
                "addr:city": "Chennai",
                "addr:country": "IN",
                "addr:housenumber": "",
                "addr:street": "Thiruvanmiyur East Coast Road",
                "address:postcode": "600041",
                "amenity": "library",
                "marker-color": "#ff0000",
                "marker-symbol": "library",
                "name": "Panuval Book Shop",
                "opening_hours": "Weekdays",
                "operator": "Directorate of Public Libraries"
            },
            "type": "Feature"
        },
        {
            "geometry": {
                "coordinates": [
                    80.266444,
                    13.032611
                ],
                "type": "Point"
            },
            "properties": {
                "addr:city": "Chennai",
                "addr:country": "IN",
                "addr:housenumber": "",
                "addr:street": "Venkatesa Agraharam",
                "address:postcode": "600004",
                "amenity": "library",
                "marker-color": "#00ff00",
                "marker-symbol": "library",
                "name": "District Branch Library, Mylapore",
                "opening_hours": "Mo-Th 08:00-11:30,14:00-19:00; week 02 Sa off; Su off",
                "operator": "Directorate of Public Libraries"
            },
            "type": "Feature"
        },
        {
            "geometry": {
                "coordinates": [
                    80.15174,
                    12.88531
                ],
                "type": "Point"
            },
            "properties": {
                "addr:city": "Chennai",
                "addr:country": "IN",
                "addr:housenumber": "",
                "addr:street": "Agaram Then Road",
                "address:postcode": "600073",
                "amenity": "library",
                "marker-color": "#00ff00",
                "marker-symbol": "library",
                "name": "Agaram Then panchayat Library",
                "opening_hours": "Mo-Fr 08:00-13:00,16:00-19:00; Sa off; Su off",
                "operator": "Directorate of Public Libraries"
            },
            "type": "Feature"
        },
        {
            "geometry": {
                "coordinates": [
                    80.22611,
                    12.97964
                ],
                "type": "Point"
            },
            "properties": {
                "addr:city": "Chennai",
                "addr:country": "IN",
                "addr:housenumber": "153",
                "addr:street": "7th Avenue, Thandeeswaram Nagar, Velachery",
                "address:postcode": "600042",
                "amenity": "library",
                "marker-color": "#00ff00",
                "marker-symbol": "library",
                "name": "District full-time library, Velachery",
                "opening_hours": "Mo-Th 08:00-20:00; Fr off; week 02 Sa off",
                "operator": "Directorate of Public Libraries"
            },
            "type": "Feature"
        },
        {
            "geometry": {
                "coordinates": [
                    80.24422,
                    13.04174
                ],
                "type": "Point"
            },
            "properties": {
                "addr:city": "Chennai",
                "addr:country": "IN",
                "addr:housenumber": "",
                "addr:street": "North Boag Road, T-Nagar",
                "address:postcode": "600032",
                "amenity": "library",
                "marker-color": "#ff0000",
                "marker-symbol": "library",
                "name": "Eloor Private Library",
                "opening_hours": "Mo-Fr 10:00-18:00",
                "operator": "Eloor Private Library"
            },
            "type": "Feature"
        },
        {
            "geometry": {
                "coordinates": [
                    80.24034,
                    13.01712
                ],
                "type": "Point"
            },
            "properties": {
                "addr:city": "Chennai",
                "addr:country": "IN",
                "addr:housenumber": "",
                "addr:street": "Kotturpuram Main Road",
                "address:postcode": "600025",
                "amenity": "library",
                "marker-color": "#00ff00",
                "marker-symbol": "library",
                "name": "Anna Centenary Library",
                "opening_hours": "Mo-Su 09:00-20:00 || Mo-Su 08:00-21:00 open \"Own book reading section\"",
                "operator": "Directorate of Public Libraries"
            },
            "type": "Feature"
        },
        {
            "geometry": {
                "coordinates": [
                    80.2142,
                    13.03194
                ],
                "type": "Point"
            },
            "properties": {
                "addr:city": "Chennai",
                "addr:country": "IN",
                "addr:housenumber": "16/35",
                "addr:street": "11th Avenue, Ashok Nagar",
                "address:postcode": "600083",
                "amenity": "library",
                "marker-color": "#00ff00",
                "marker-symbol": "library",
                "name": "District Circle Library, Ashok Nagar",
                "opening_hours": "Mo-Th 08:00-20:00; Fr off; week 02 Sa off; PH off",
                "operator": "Directorate of Public Libraries"
            },
            "type": "Feature"
        },
        {
            "geometry": {
                "coordinates": [
                    80.25974,
                    12.98614
                ],
                "type": "Point"
            },
            "properties": {
                "addr:city": "Chennai",
                "addr:country": "IN",
                "addr:housenumber": "148/AV",
                "addr:street": "East Coast Road, Tiruvanmiyur",
                "address:postcode": "600041",
                "amenity": "library",
                "marker-color": "#00ff00",
                "marker-symbol": "library",
                "name": "Full time branch library, Tiruvanmiyur",
                "opening_hours": "Mo-Th 08:00-20:00; Fr off; week 02 Sa off; PH off",
                "operator": "Directorate of Public Libraries"
            },
            "type": "Feature"
        },
        {
            "geometry": {
                "coordinates": [
                    80.2653486,
                    13.0372553
                ],
                "type": "Point"
            },
            "properties": {
                "addr:city": "Chennai",
                "addr:country": "IN",
                "addr:housenumber": "",
                "addr:street": "Srinivasa Sastri Hall, Luz Church Road, Mylapore",
                "address:postcode": "600004",
                "amenity": "library",
                "marker-color": "#ff0000",
                "marker-symbol": "library",
                "name": "Ranade Library",
                "opening_hours": "Mo-Sa 08:00-21:00",
                "operator": "The South Indian national Association"
            },
            "type": "Feature"
        },
        {
            "geometry": {
                "coordinates": [
                    80.24565,
                    13.02823
                ],
                "type": "Point"
            },
            "properties": {
                "addr:city": "Chennai",
                "addr:country": "IN",
                "addr:housenumber": "1",
                "addr:street": "Turnbulls Road, Nandanam",
                "address:postcode": "600035",
                "amenity": "library",
                "marker-color": "#00ff00",
                "marker-symbol": "library",
                "name": "Dr. Kedadas Ethirajulu Indrani Branch Library",
                "opening_hours": "Mo-Th 08:00-11:30,16:00-19:00; Fr off; week 02 Sa off; PH off",
                "operator": "Directorate of Public Libraries"
            },
            "type": "Feature"
        },
        {
            "geometry": {
                "coordinates": [
                    80.25051,
                    13.03509
                ],
                "type": "Point"
            },
            "properties": {
                "addr:city": "Chennai",
                "addr:country": "IN",
                "addr:housenumber": "",
                "addr:street": "Kavingar Barathidasan Road, Alwarpet",
                "address:postcode": "600018",
                "amenity": "library",
                "marker-color": "#00ff00",
                "marker-symbol": "library",
                "name": "Chennai District Circle Library, Kavingar Barathidasan Road",
                "opening_hours": "Mo-Th 08:00-20:00; Fr off; Week 02 Sa off; PH off",
                "operator": "Directorate of Public Libraries"
            },
            "type": "Feature"
        },
        {
            "geometry": {
                "coordinates": [
                    80.24424,
                    13.01679
                ],
                "type": "Point"
            },
            "properties": {
                "addr:city": "Chennai",
                "addr:country": "IN",
                "addr:housenumber": "2",
                "addr:street": "New Street, Kottur",
                "address:postcode": "600085",
                "amenity": "library",
                "marker-color": "#00ff00",
                "marker-symbol": "library",
                "name": "Branch Library, Kottur",
                "opening_hours": "Mo-Th 08:00-11:30,16:00-19:00; Fr off; week 02 Sa off; PH off",
                "operator": "Directorate of Public Libraries"
            },
            "type": "Feature"
        },
        {
            "geometry": {
                "coordinates": [
                    80.25803,
                    13.05823
                ],
                "type": "Point"
            },
            "properties": {
                "addr:city": "Chennai",
                "addr:country": "IN",
                "addr:housenumber": "",
                "addr:street": "Thousand Lights, Anna Salai",
                "address:postcode": "600006",
                "amenity": "library",
                "marker-color": "#00ff00",
                "marker-symbol": "library",
                "name": "Devaneya Pavanar Library",
                "opening_hours": "Mo-Th 08:00-20:00; week 02 Sa off; PH off",
                "operator": "Directorate of Public Libraries"
            },
            "type": "Feature"
        },
        {
            "geometry": {
                "coordinates": [
                    80.25693,
                    13.07029
                ],
                "type": "Point"
            },
            "properties": {
                "addr:city": "Chennai",
                "addr:country": "IN",
                "addr:housenumber": "",
                "addr:street": "Pantheon Road, Egmore",
                "address:postcode": "600008",
                "amenity": "library",
                "marker-color": "#00ff00",
                "marker-symbol": "library",
                "name": "Connemara Public Library",
                "opening_hours": "Mo-Th 09:00-19:00; week 02 Sa off; Fr off; PH off",
                "operator": "Directorate of Public Libraries"
            },
            "type": "Feature"
        },
        {
            "geometry": {
                "coordinates": [
                    80.21833,
                    13.02473
                ],
                "type": "Point"
            },
            "properties": {
                "addr:city": "Chennai",
                "addr:country": "IN",
                "addr:housenumber": "83",
                "addr:street": "West Jones Road, Saidapet",
                "address:postcode": "600015",
                "amenity": "library",
                "marker-color": "#00ff00",
                "marker-symbol": "library",
                "name": "District branch library, Saidapet",
                "opening_hours": "Mo-Th 08:00-11:30,16:00-19:00; week 02 Sa off; Fr off; PH off",
                "operator": "Directorate of Public Libraries"
            },
            "type": "Feature"
        }
    ],
    "type": "FeatureCollection"
}